OBJECT B                
1 51825U 22019B   25020.94281024  .00031201  00000+0  98954-3 0  9998
2 51825  97.4038  96.8498 0011616 184.0634 176.0516 15.32573176160451
